start=new Date('2022-08-06T00:00:00.000Z').valueOf();
sats=[{"MEAN_MOTION_DOT":"0.00000155","ECCENTRICITY":"0.00013460","COUNTRY_CODE":"US","MEAN_ELEMENT_THEORY":"SGP4","MEAN_ANOMALY":"271.6522","OBJECT_TYPE":"PAYLOAD","PERIAPSIS":"546.283","DECAY_DATE":null,"SITE":"AFETR","OBJECT_ID":"2021-041AX","OBJECT_NAME":"STARLINK-2256","TLE_LINE2":"2 48598  53.0546 270.6752 0001346  88.4621 271.6522 15.06399383 67792","PERIOD":"95.592","BSTAR":"0.00002928100000","CLASSIFICATION_TYPE":"U","MEAN_MOTION":"15.06399383","REV_AT_EPOCH":"6779","SEMIMAJOR_AXIS":"6925.350","EPOCH":"2022-08-05T20:32:08.459808","REF_FRAME":"TEME","RA_OF_ASC_NODE":"270.6752","MEAN_MOTION_DDOT":"0.0000000000000","INCLINATION":"53.0546","APOAPSIS":"548.148","RCS_SIZE":"LARGE","FILE":"3530042","CENTER_NAME":"EARTH","NORAD_CAT_ID":"48598","LAUNCH_DATE":"2021-05-15","TIME_SYSTEM":"UTC","TLE_LINE1":"1 48598U 21041AX  22217.85565347  .00000155  00000-0  29281-4 0  9996","GP_ID":"209657494","EPHEMERIS_TYPE":"0","ELEMENT_SET_NO":"999","ARG_OF_PERICENTER":"88.4621"},{"PERIOD":"95.592","TLE_LINE2":"2 48599  53.0549 245.8582 0001487  73.5047 286.6106 15.06399414 68952","OBJECT_NAME":"STARLINK-2274","OBJECT_ID":"2021-041AY","DECAY_DATE":null,"SITE":"AFETR","MEAN_MOTION":"15.06399414","REV_AT_EPOCH":"6895","CLASSIFICATION_TYPE":"U","BSTAR":"-0.00001526700000","MEAN_MOTION_DOT":"-0.00000509","PERIAPSIS":"546.186","OBJECT_TYPE":"PAYLOAD","MEAN_ANOMALY":"286.6106","MEAN_ELEMENT_THEORY":"SGP4","COUNTRY_CODE":"US","ECCENTRICITY":"0.00014870","EPHEMERIS_TYPE":"0","TLE_LINE1":"1 48599U 21041AY  22217.81557225 -.00000509  00000-0 -15267-4 0  9993","GP_ID":"209656252","TIME_SYSTEM":"UTC","LAUNCH_DATE":"2021-05-15","NORAD_CAT_ID":"48599","ARG_OF_PERICENTER":"73.5047","ELEMENT_SET_NO":"999","REF_FRAME":"TEME","EPOCH":"2022-08-05T19:34:25.442400","SEMIMAJOR_AXIS":"6925.350","CENTER_NAME":"EARTH","FILE":"3530042","RCS_SIZE":"LARGE","APOAPSIS":"548.245","INCLINATION":"53.0549","MEAN_MOTION_DDOT":"0.0000000000000","RA_OF_ASC_NODE":"245.8582"},{"REV_AT_EPOCH":"6874","MEAN_MOTION":"15.06396344","CLASSIFICATION_TYPE":"U","BSTAR":"0.00012788000000","OBJECT_NAME":"STARLINK-2275","OBJECT_ID":"2021-041AZ","PERIOD":"95.592","TLE_LINE2":"2 48600  53.0544 260.6798 0001291  95.7094 264.4042 15.06396344 68744","SITE":"AFETR","DECAY_DATE":null,"OBJECT_TYPE":"PAYLOAD","PERIAPSIS":"546.331","MEAN_ELEMENT_THEORY":"SGP4","MEAN_ANOMALY":"264.4042","COUNTRY_CODE":"US","ECCENTRICITY":"0.00012910","MEAN_MOTION_DOT":"0.00001624","ARG_OF_PERICENTER":"95.7094","ELEMENT_SET_NO":"999","EPHEMERIS_TYPE":"0","TLE_LINE1":"1 48600U 21041AZ  22217.85289282  .00001624  00000-0  12788-3 0  9996","GP_ID":"209656002","TIME_SYSTEM":"UTC","LAUNCH_DATE":"2021-05-15","NORAD_CAT_ID":"48600","RCS_SIZE":"LARGE","FILE":"3530042","CENTER_NAME":"EARTH","RA_OF_ASC_NODE":"260.6798","MEAN_MOTION_DDOT":"0.0000000000000","APOAPSIS":"548.119","INCLINATION":"53.0544","REF_FRAME":"TEME","EPOCH":"2022-08-05T20:28:09.939648","SEMIMAJOR_AXIS":"6925.360"},{"ECCENTRICITY":"0.00015380","COUNTRY_CODE":"US","MEAN_ELEMENT_THEORY":"SGP4","MEAN_ANOMALY":"291.4057","PERIAPSIS":"546.159","OBJECT_TYPE":"PAYLOAD","MEAN_MOTION_DOT":"0.00001256","BSTAR":"0.00010318000000","CLASSIFICATION_TYPE":"U","MEAN_MOTION":"15.06396603","REV_AT_EPOCH":"6893","SITE":"AFETR","DECAY_DATE":null,"TLE_LINE2":"2 48602  53.0530 246.0077 0001538  68.7096 291.4057 15.06396603 68930","PERIOD":"95.592","OBJECT_NAME":"STARLINK-2713","OBJECT_ID":"2021-041BB","INCLINATION":"53.0530","APOAPSIS":"548.289","MEAN_MOTION_DDOT":"0.0000000000000","RA_OF_ASC_NODE":"246.0077","CENTER_NAME":"EARTH","FILE":"3530042","RCS_SIZE":"LARGE","SEMIMAJOR_AXIS":"6925.359","EPOCH":"2022-08-05T18:46:39.110304","REF_FRAME":"TEME","ELEMENT_SET_NO":"999","ARG_OF_PERICENTER":"68.7096","LAUNCH_DATE":"2021-05-15","NORAD_CAT_ID":"48602","TIME_SYSTEM":"UTC","GP_ID":"209657253","TLE_LINE1":"1 48602U 21041BB  22217.78239711  .00001256  00000-0  10318-3 0  9990","EPHEMERIS_TYPE":"0"},{"EPOCH":"2022-08-05T07:07:58.997568","SEMIMAJOR_AXIS":"6925.354","REF_FRAME":"TEME","RA_OF_ASC_NODE":"243.1684","MEAN_MOTION_DDOT":"0.0000000000000","APOAPSIS":"548.260","INCLINATION":"53.0533","RCS_SIZE":"LARGE","FILE":"3529733","CENTER_NAME":"EARTH","TIME_SYSTEM":"UTC","LAUNCH_DATE":"2021-05-15","NORAD_CAT_ID":"48603","EPHEMERIS_TYPE":"0","GP_ID":"209624264","TLE_LINE1":"1 48603U 21041BC  22217.29721062 -.00001214  00000-0 -62619-4 0  9990","ELEMENT_SET_NO":"999","ARG_OF_PERICENTER":"60.5640","MEAN_MOTION_DOT":"-0.00001214","MEAN_ELEMENT_THEORY":"SGP4","MEAN_ANOMALY":"299.5498","ECCENTRICITY":"0.00015030","COUNTRY_CODE":"US","OBJECT_TYPE":"PAYLOAD","PERIAPSIS":"546.178","DECAY_DATE":null,"SITE":"AFETR","OBJECT_NAME":"STARLINK-2714","OBJECT_ID":"2021-041BC","PERIOD":"95.592","TLE_LINE2":"2 48603  53.0533 243.1684 0001503  60.5640 299.5498 15.06398145 68945","CLASSIFICATION_TYPE":"U","BSTAR":"-0.00006261900000","REV_AT_EPOCH":"6894","MEAN_MOTION":"15.06398145"},{"EPHEMERIS_TYPE":"0","TLE_LINE1":"1 48604U 21041BD  22217.43177361  .00000277  00000-0  37532-4 0  9996","GP_ID":"209633792","TIME_SYSTEM":"UTC","LAUNCH_DATE":"2021-05-15","NORAD_CAT_ID":"48604","ARG_OF_PERICENTER":"71.2868","ELEMENT_SET_NO":"999","REF_FRAME":"TEME","EPOCH":"2022-08-05T10:21:45.239904","SEMIMAJOR_AXIS":"6925.373","RCS_SIZE":"LARGE","CENTER_NAME":"EARTH","FILE":"3529982","MEAN_MOTION_DDOT":"0.0000000000000","RA_OF_ASC_NODE":"272.5824","APOAPSIS":"548.294","INCLINATION":"53.0540","OBJECT_NAME":"STARLINK-2757","OBJECT_ID":"2021-041BD","PERIOD":"95.593","TLE_LINE2":"2 48604  53.0540 272.5824 0001525  71.2868 288.8286 15.06392122 68542","DECAY_DATE":null,"SITE":"AFETR","REV_AT_EPOCH":"6854","MEAN_MOTION":"15.06392122","CLASSIFICATION_TYPE":"U","BSTAR":"0.00003753200000","MEAN_MOTION_DOT":"0.00000277","OBJECT_TYPE":"PAYLOAD","PERIAPSIS":"546.182","MEAN_ELEMENT_THEORY":"SGP4","MEAN_ANOMALY":"288.8286","COUNTRY_CODE":"US","ECCENTRICITY":"0.00015250"},{"ARG_OF_PERICENTER":"80.8001","ELEMENT_SET_NO":"999","EPHEMERIS_TYPE":"0","TLE_LINE1":"1 48638U 21044A   22217.78145684 -.00000757  00000-0 -31957-4 0  9997","GP_ID":"209656758","TIME_SYSTEM":"UTC","LAUNCH_DATE":"2021-05-26","NORAD_CAT_ID":"48638","RCS_SIZE":"LARGE","CENTER_NAME":"EARTH","FILE":"3530042","RA_OF_ASC_NODE":"246.0132","MEAN_MOTION_DDOT":"0.0000000000000","APOAPSIS":"548.185","INCLINATION":"53.0536","REF_FRAME":"TEME","EPOCH":"2022-08-05T18:45:17.870976","SEMIMAJOR_AXIS":"6925.357","MEAN_MOTION":"15.06397269","REV_AT_EPOCH":"6604","CLASSIFICATION_TYPE":"U","BSTAR":"-0.00003195700000","OBJECT_NAME":"STARLINK-2758","OBJECT_ID":"2021-044A","PERIOD":"95.592","TLE_LINE2":"2 48638  53.0536 246.0132 0001390  80.8001 279.3145 15.06397269 66046","SITE":"AFETR","DECAY_DATE":null,"OBJECT_TYPE":"PAYLOAD","PERIAPSIS":"546.259","MEAN_ANOMALY":"279.3145","MEAN_ELEMENT_THEORY":"SGP4","ECCENTRICITY":"0.00013900","COUNTRY_CODE":"US","MEAN_MOTION_DOT":"-0.00000757"},{"GP_ID":"209624768","TLE_LINE1":"1 48639U 21044B   22217.30228071  .00000990  00000-0  85373-4 0  9996","EPHEMERIS_TYPE":"0","LAUNCH_DATE":"2021-05-26","NORAD_CAT_ID":"48639","TIME_SYSTEM":"UTC","ARG_OF_PERICENTER":"66.1850","ELEMENT_SET_NO":"999","REF_FRAME":"TEME","SEMIMAJOR_AXIS":"6925.365","EPOCH":"2022-08-05T07:15:17.053344","FILE":"3529733","CENTER_NAME":"EARTH","RCS_SIZE":"LARGE","INCLINATION":"53.0544","APOAPSIS":"548.183","RA_OF_ASC_NODE":"248.1688","MEAN_MOTION_DDOT":"0.0000000000000","TLE_LINE2":"2 48639  53.0544 248.1688 0001377  66.1850 293.9283 15.06394757 65974","PERIOD":"95.592","OBJECT_ID":"2021-044B","OBJECT_NAME":"STARLINK-2739","SITE":"AFETR","DECAY_DATE":null,"MEAN_MOTION":"15.06394757","REV_AT_EPOCH":"6597","BSTAR":"0.00008537300000","CLASSIFICATION_TYPE":"U","MEAN_MOTION_DOT":"0.00000990","PERIAPSIS":"546.276","OBJECT_TYPE":"PAYLOAD","ECCENTRICITY":"0.00013770","COUNTRY_CODE":"US","MEAN_ELEMENT_THEORY":"SGP4","MEAN_ANOMALY":"293.9283"},{"ECCENTRICITY":"0.00012820","COUNTRY_CODE":"US","MEAN_ELEMENT_THEORY":"SGP4","MEAN_ANOMALY":"286.6894","OBJECT_TYPE":"PAYLOAD","PERIAPSIS":"546.346","MEAN_MOTION_DOT":"0.00000999","BSTAR":"0.00008595900000","CLASSIFICATION_TYPE":"U","MEAN_MOTION":"15.06393304","REV_AT_EPOCH":"6600","DECAY_DATE":null,"SITE":"AFETR","OBJECT_NAME":"STARLINK-2736","OBJECT_ID":"2021-044C","TLE_LINE2":"2 48640  53.0541 247.2776 0001282  73.4236 286.6894 15.06393304 66004","PERIOD":"95.593","RA_OF_ASC_NODE":"247.2776","MEAN_MOTION_DDOT":"0.0000000000000","INCLINATION":"53.0541","APOAPSIS":"548.122","RCS_SIZE":"LARGE","FILE":"3530042","CENTER_NAME":"EARTH","SEMIMAJOR_AXIS":"6925.369","EPOCH":"2022-08-05T13:28:14.260224","REF_FRAME":"TEME","ELEMENT_SET_NO":"999","ARG_OF_PERICENTER":"73.4236","LAUNCH_DATE":"2021-05-26","NORAD_CAT_ID":"48640","TIME_SYSTEM":"UTC","GP_ID":"209656257","TLE_LINE1":"1 48640U 21044C   22217.56127616  .00000999  00000-0  85959-4 0  9998","EPHEMERIS_TYPE":"0"},{"SITE":"AFETR","DECAY_DATE":null,"OBJECT_NAME":"STARLINK-2754","OBJECT_ID":"2021-044D","PERIOD":"95.592","TLE_LINE2":"2 48641  53.0531 252.5377 0001333  68.5605 291.5526 15.06401250 65929","CLASSIFICATION_TYPE":"U","BSTAR":"-0.00001154900000","MEAN_MOTION":"15.06401250","REV_AT_EPOCH":"6592","MEAN_MOTION_DOT":"-0.00000453","MEAN_ANOMALY":"291.5526","MEAN_ELEMENT_THEORY":"SGP4","COUNTRY_CODE":"US","ECCENTRICITY":"0.00013330","OBJECT_TYPE":"PAYLOAD","PERIAPSIS":"546.287","TIME_SYSTEM":"UTC","LAUNCH_DATE":"2021-05-26","NORAD_CAT_ID":"48641","EPHEMERIS_TYPE":"0","GP_ID":"209625253","TLE_LINE1":"1 48641U 21044D   22217.44098307 -.00000453  00000-0 -11549-4 0  9991","ELEMENT_SET_NO":"999","ARG_OF_PERICENTER":"68.5605","EPOCH":"2022-08-05T10:35:00.937248","SEMIMAJOR_AXIS":"6925.345","REF_FRAME":"TEME","RA_OF_ASC_NODE":"252.5377","MEAN_MOTION_DDOT":"0.0000000000000","APOAPSIS":"548.133","INCLINATION":"53.0531","RCS_SIZE":"LARGE","CENTER_NAME":"EARTH","FILE":"3529733"}];
